start=new Date('2021-12-23T00:00:00.000Z').valueOf();
sats=[{"LAUNCH_DATE":"2020-01-29","TIME_SYSTEM":"UTC","CENTER_NAME":"EARTH","INCLINATION":"53.0556","MEAN_ELEMENT_THEORY":"SGP4","DECAY_DATE":null,"EPOCH":"2021-12-22T10:13:34.389408","SITE":"AFETR","OBJECT_TYPE":"PAYLOAD","ECCENTRICITY":"0.00017120","REV_AT_EPOCH":"10488","MEAN_MOTION_DOT":"0.00000736","TLE_LINE2":"2 45068  53.0556 332.1646 0001712  74.1424 285.9754 15.06401272104886","APOAPSIS":"548.395","OBJECT_NAME":"STARLINK-1161","SEMIMAJOR_AXIS":"6925.345","NORAD_CAT_ID":"45068","PERIOD":"95.592","MEAN_MOTION":"15.06401272","FILE":"3247523","RA_OF_ASC_NODE":"332.1646","COUNTRY_CODE":"US","CLASSIFICATION_TYPE":"U","MEAN_ANOMALY":"285.9754","RCS_SIZE":"LARGE","ARG_OF_PERICENTER":"74.1424","EPHEMERIS_TYPE":"0","PERIAPSIS":"546.024","ELEMENT_SET_NO":"999","OBJECT_ID":"2020-006AA","BSTAR":"0.00006833000000","GP_ID":"192216164","TLE_LINE1":"1 45068U 20006AA  21356.42609247  .00000736  00000-0  68330-4 0  9992","MEAN_MOTION_DDOT":"0.0000000000000","REF_FRAME":"TEME"},{"MEAN_MOTION":"15.06386659","PERIOD":"95.593","NORAD_CAT_ID":"45071","RA_OF_ASC_NODE":"332.5562","FILE":"3247523","CLASSIFICATION_TYPE":"U","COUNTRY_CODE":"US","MEAN_ANOMALY":"298.2842","PERIAPSIS":"546.045","EPHEMERIS_TYPE":"0","ARG_OF_PERICENTER":"61.8323","RCS_SIZE":"LARGE","ELEMENT_SET_NO":"999","OBJECT_ID":"2020-006AD","MEAN_MOTION_DDOT":"0.0000000000000","TLE_LINE1":"1 45071U 20006AD  21356.33762797 -.00004706  00000-0 -29733-3 0  9992","GP_ID":"192215913","BSTAR":"-0.00029733000000","REF_FRAME":"TEME","CENTER_NAME":"EARTH","TIME_SYSTEM":"UTC","LAUNCH_DATE":"2020-01-29","INCLINATION":"53.0551","MEAN_ELEMENT_THEORY":"SGP4","SITE":"AFETR","EPOCH":"2021-12-22T08:06:11.056608","DECAY_DATE":null,"REV_AT_EPOCH":"10487","OBJECT_TYPE":"PAYLOAD","ECCENTRICITY":"0.00017470","APOAPSIS":"548.464","TLE_LINE2":"2 45071  53.0551 332.5562 0001747  61.8323 298.2842 15.06386659104870","MEAN_MOTION_DOT":"-0.00004706","OBJECT_NAME":"STARLINK-1167","SEMIMAJOR_AXIS":"6925.389"},{"MEAN_ELEMENT_THEORY":"SGP4","SITE":"AFETR","DECAY_DATE":null,"EPOCH":"2021-12-22T09:47:02.023584","CENTER_NAME":"EARTH","LAUNCH_DATE":"2020-01-29","TIME_SYSTEM":"UTC","INCLINATION":"53.0540","OBJECT_NAME":"STARLINK-1168","SEMIMAJOR_AXIS":"6925.362","REV_AT_EPOCH":"10488","OBJECT_TYPE":"PAYLOAD","ECCENTRICITY":"0.00018490","TLE_LINE2":"2 45072  53.0540 332.2326 0001849  66.6875 293.4308 15.06395775104886","APOAPSIS":"548.507","MEAN_MOTION_DOT":"-0.00001146","CLASSIFICATION_TYPE":"U","COUNTRY_CODE":"US","MEAN_ANOMALY":"293.4308","MEAN_MOTION":"15.06395775","NORAD_CAT_ID":"45072","PERIOD":"95.592","RA_OF_ASC_NODE":"332.2326","FILE":"3247523","TLE_LINE1":"1 45072U 20006AE  21356.40766231 -.00001146  00000-0 -58068-4 0  9997","MEAN_MOTION_DDOT":"0.0000000000000","BSTAR":"-0.00005806800000","GP_ID":"192217166","REF_FRAME":"TEME","EPHEMERIS_TYPE":"0","ARG_OF_PERICENTER":"66.6875","PERIAPSIS":"545.946","RCS_SIZE":"LARGE","OBJECT_ID":"2020-006AE","ELEMENT_SET_NO":"999"},{"INCLINATION":"53.0551","TIME_SYSTEM":"UTC","LAUNCH_DATE":"2020-01-29","CENTER_NAME":"EARTH","EPOCH":"2021-12-22T04:02:02.494752","DECAY_DATE":null,"SITE":"AFETR","MEAN_ELEMENT_THEORY":"SGP4","MEAN_MOTION_DOT":"-0.00001458","APOAPSIS":"548.468","TLE_LINE2":"2 45073  53.0551 333.3055 0001724  56.0609 304.0544 15.06380420104848","ECCENTRICITY":"0.00017240","OBJECT_TYPE":"PAYLOAD","REV_AT_EPOCH":"10484","SEMIMAJOR_AXIS":"6925.409","OBJECT_NAME":"STARLINK-1170","FILE":"3247523","RA_OF_ASC_NODE":"333.3055","NORAD_CAT_ID":"45073","PERIOD":"95.593","MEAN_MOTION":"15.06380420","MEAN_ANOMALY":"304.0544","COUNTRY_CODE":"US","CLASSIFICATION_TYPE":"U","OBJECT_ID":"2020-006AF","ELEMENT_SET_NO":"999","RCS_SIZE":"LARGE","PERIAPSIS":"546.080","ARG_OF_PERICENTER":"56.0609","EPHEMERIS_TYPE":"0","REF_FRAME":"TEME","GP_ID":"192216916","BSTAR":"-0.00007907100000","MEAN_MOTION_DDOT":"0.0000000000000","TLE_LINE1":"1 45073U 20006AF  21356.16808443 -.00001458  00000-0 -79071-4 0  9996"},{"ELEMENT_SET_NO":"999","OBJECT_ID":"2020-006AG","RCS_SIZE":"LARGE","ARG_OF_PERICENTER":"53.0664","EPHEMERIS_TYPE":"0","PERIAPSIS":"545.872","REF_FRAME":"TEME","BSTAR":"-0.00008691000000","GP_ID":"192215664","TLE_LINE1":"1 45074U 20006AG  21356.35237479 -.00001576  00000-0 -86910-4 0  9994","MEAN_MOTION_DDOT":"0.0000000000000","FILE":"3247523","RA_OF_ASC_NODE":"332.4964","PERIOD":"95.593","NORAD_CAT_ID":"45074","MEAN_MOTION":"15.06391565","MEAN_ANOMALY":"307.0505","COUNTRY_CODE":"US","CLASSIFICATION_TYPE":"U","MEAN_MOTION_DOT":"-0.00001576","TLE_LINE2":"2 45074  53.0556 332.4964 0001974  53.0664 307.0505 15.06391565104873","APOAPSIS":"548.606","OBJECT_TYPE":"PAYLOAD","ECCENTRICITY":"0.00019740","REV_AT_EPOCH":"10487","SEMIMAJOR_AXIS":"6925.374","OBJECT_NAME":"STARLINK-1172","INCLINATION":"53.0556","LAUNCH_DATE":"2020-01-29","TIME_SYSTEM":"UTC","CENTER_NAME":"EARTH","DECAY_DATE":null,"EPOCH":"2021-12-22T08:27:25.181856","SITE":"AFETR","MEAN_ELEMENT_THEORY":"SGP4"},{"INCLINATION":"53.0544","TIME_SYSTEM":"UTC","LAUNCH_DATE":"2020-01-29","CENTER_NAME":"EARTH","DECAY_DATE":null,"EPOCH":"2021-12-22T10:50:44.331072","SITE":"AFETR","MEAN_ELEMENT_THEORY":"SGP4","MEAN_MOTION_DOT":"-0.00004689","TLE_LINE2":"2 45075  53.0544 332.0483 0001765  57.8250 302.2910 15.06392479104898","APOAPSIS":"548.459","ECCENTRICITY":"0.00017650","OBJECT_TYPE":"PAYLOAD","REV_AT_EPOCH":"10489","SEMIMAJOR_AXIS":"6925.372","OBJECT_NAME":"STARLINK-1174","FILE":"3247523","RA_OF_ASC_NODE":"332.0483","NORAD_CAT_ID":"45075","PERIOD":"95.593","MEAN_MOTION":"15.06392479","MEAN_ANOMALY":"302.2910","COUNTRY_CODE":"US","CLASSIFICATION_TYPE":"U","OBJECT_ID":"2020-006AH","ELEMENT_SET_NO":"999","RCS_SIZE":"LARGE","ARG_OF_PERICENTER":"57.8250","EPHEMERIS_TYPE":"0","PERIAPSIS":"546.014","REF_FRAME":"TEME","BSTAR":"-0.00029613000000","GP_ID":"192216414","TLE_LINE1":"1 45075U 20006AH  21356.45190198 -.00004689  00000-0 -29613-3 0  9996","MEAN_MOTION_DDOT":"0.0000000000000"},{"COUNTRY_CODE":"US","CLASSIFICATION_TYPE":"U","MEAN_ANOMALY":"303.6295","NORAD_CAT_ID":"45076","PERIOD":"95.593","MEAN_MOTION":"15.06390258","FILE":"3247523","RA_OF_ASC_NODE":"332.0035","BSTAR":"-0.00016375000000","GP_ID":"192216666","TLE_LINE1":"1 45076U 20006AJ  21356.45926468 -.00002719  00000-0 -16375-3 0  9997","MEAN_MOTION_DDOT":"0.0000000000000","REF_FRAME":"TEME","RCS_SIZE":"LARGE","ARG_OF_PERICENTER":"56.4872","EPHEMERIS_TYPE":"0","PERIAPSIS":"545.949","ELEMENT_SET_NO":"999","OBJECT_ID":"2020-006AJ","MEAN_ELEMENT_THEORY":"SGP4","DECAY_DATE":null,"EPOCH":"2021-12-22T11:01:20.468352","SITE":"AFETR","LAUNCH_DATE":"2020-01-29","TIME_SYSTEM":"UTC","CENTER_NAME":"EARTH","INCLINATION":"53.0546","OBJECT_NAME":"STARLINK-1180","SEMIMAJOR_AXIS":"6925.378","OBJECT_TYPE":"PAYLOAD","ECCENTRICITY":"0.00018690","REV_AT_EPOCH":"10489","MEAN_MOTION_DOT":"-0.00002719","TLE_LINE2":"2 45076  53.0546 332.0035 0001869  56.4872 303.6295 15.06390258104898","APOAPSIS":"548.538"},{"RCS_SIZE":"LARGE","PERIAPSIS":"410.797","ARG_OF_PERICENTER":"38.3152","EPHEMERIS_TYPE":"0","ELEMENT_SET_NO":"999","OBJECT_ID":"2020-006AK","GP_ID":"192217417","BSTAR":"0.00105230000000","MEAN_MOTION_DDOT":"0.0000000000000","TLE_LINE1":"1 45077U 20006AK  21356.11139446  .00063576  00000-0  10523-2 0  9997","REF_FRAME":"TEME","PERIOD":"92.807","NORAD_CAT_ID":"45077","MEAN_MOTION":"15.51613841","FILE":"3247523","RA_OF_ASC_NODE":"298.6441","COUNTRY_CODE":"US","CLASSIFICATION_TYPE":"U","MEAN_ANOMALY":"321.7984","ECCENTRICITY":"0.00017950","OBJECT_TYPE":"PAYLOAD","REV_AT_EPOCH":"10533","MEAN_MOTION_DOT":"0.00063576","APOAPSIS":"413.235","TLE_LINE2":"2 45077  53.0556 298.6441 0001795  38.3152 321.7984 15.51613841105338","OBJECT_NAME":"STARLINK-1182","SEMIMAJOR_AXIS":"6790.151","TIME_SYSTEM":"UTC","LAUNCH_DATE":"2020-01-29","CENTER_NAME":"EARTH","INCLINATION":"53.0556","MEAN_ELEMENT_THEORY":"SGP4","EPOCH":"2021-12-22T02:40:24.481344","DECAY_DATE":null,"SITE":"AFETR"},{"OBJECT_NAME":"STARLINK-1177","SEMIMAJOR_AXIS":"6925.382","REV_AT_EPOCH":"10483","ECCENTRICITY":"0.00018210","OBJECT_TYPE":"PAYLOAD","APOAPSIS":"548.508","TLE_LINE2":"2 45078  53.0563 333.4149 0001821  58.6183 301.4984 15.06388986104837","MEAN_MOTION_DOT":"-0.00003115","MEAN_ELEMENT_THEORY":"SGP4","SITE":"AFETR","EPOCH":"2021-12-22T03:30:10.671840","DECAY_DATE":null,"CENTER_NAME":"EARTH","LAUNCH_DATE":"2020-01-29","TIME_SYSTEM":"UTC","INCLINATION":"53.0563","MEAN_MOTION_DDOT":"0.0000000000000","TLE_LINE1":"1 45078U 20006AL  21356.14595685 -.00003115  00000-0 -19037-3 0  9997","GP_ID":"192216165","BSTAR":"-0.00019037000000","REF_FRAME":"TEME","PERIAPSIS":"545.986","EPHEMERIS_TYPE":"0","ARG_OF_PERICENTER":"58.6183","RCS_SIZE":"LARGE","ELEMENT_SET_NO":"999","OBJECT_ID":"2020-006AL","CLASSIFICATION_TYPE":"U","COUNTRY_CODE":"US","MEAN_ANOMALY":"301.4984","MEAN_MOTION":"15.06388986","PERIOD":"95.593","NORAD_CAT_ID":"45078","RA_OF_ASC_NODE":"333.4149","FILE":"3247523"},{"SEMIMAJOR_AXIS":"6925.373","OBJECT_NAME":"STARLINK-1149","MEAN_MOTION_DOT":"-0.00001353","APOAPSIS":"548.397","TLE_LINE2":"2 45079  53.0546 332.0224 0001673  54.0420 306.0724 15.06391874104885","ECCENTRICITY":"0.00016730","OBJECT_TYPE":"PAYLOAD","REV_AT_EPOCH":"10488","EPOCH":"2021-12-22T10:56:02.449824","DECAY_DATE":null,"SITE":"AFETR","MEAN_ELEMENT_THEORY":"SGP4","INCLINATION":"53.0546","TIME_SYSTEM":"UTC","LAUNCH_DATE":"2020-01-29","CENTER_NAME":"EARTH","REF_FRAME":"TEME","GP_ID":"192215914","BSTAR":"-0.00007197800000","MEAN_MOTION_DDOT":"0.0000000000000","TLE_LINE1":"1 45079U 20006AM  21356.45558391 -.00001353  00000-0 -71978-4 0  9990","ELEMENT_SET_NO":"999","OBJECT_ID":"2020-006AM","RCS_SIZE":"LARGE","PERIAPSIS":"546.080","ARG_OF_PERICENTER":"54.0420","EPHEMERIS_TYPE":"0","MEAN_ANOMALY":"306.0724","COUNTRY_CODE":"US","CLASSIFICATION_TYPE":"U","FILE":"3247523","RA_OF_ASC_NODE":"332.0224","PERIOD":"95.593","NORAD_CAT_ID":"45079","MEAN_MOTION":"15.06391874"}];
